[{"OBJECT_NAME":"STARLINK-33640","OBJECT_ID":"2025-063R","EPOCH":"2026-03-09T23:12:48.162240","MEAN_MOTION":15.30224928,"ECCENTRICITY":0.00014669,"INCLINATION":53.1593,"RA_OF_ASC_NODE":51.0475,"ARG_OF_PERICENTER":94.1768,"MEAN_ANOMALY":265.94,"EPHEMERIS_TYPE":0,"CLASSIFICATION_TYPE":"U","NORAD_CAT_ID":63378,"ELEMENT_SET_NO":999,"REV_AT_EPOCH":5480,"BSTAR":0.0014810129,"MEAN_MOTION_DOT":0.00043797,"MEAN_MOTION_DDOT":0},{"OBJECT_NAME":"CZ-6A DEB","OBJECT_ID":"2022-151EM","EPOCH":"2026-03-09T21:12:10.844640","MEAN_MOTION":15.1479521,"ECCENTRICITY":0.00732342,"INCLINATION":98.809,"RA_OF_ASC_NODE":212.6624,"ARG_OF_PERICENTER":10.5605,"MEAN_ANOMALY":349.714,"EPHEMERIS_TYPE":0,"CLASSIFICATION_TYPE":"U","NORAD_CAT_ID":54413,"ELEMENT_SET_NO":999,"REV_AT_EPOCH":17915,"BSTAR":0.0020661814,"MEAN_MOTION_DOT":0.00041137,"MEAN_MOTION_DDOT":0}]
